#dP2025  1 30 12  0  0.00000000      96 __u+U IGS20 EXT  IAC
## 2351 388800.00000000   900.00000000 60705 0.5000000000000
+   53   G01G02G03G04G05G06G07G08G09G10G11G12G13G14G15G16G17
+        G18G19G20G21G22G23G24G25G26G27G28G29G30G31G32R01R02
+        R03R04R05R06R07R08R09R11R12R14R15R16R17R18R19R20R21
+        R22R24  0  0  0  0  0  0  0  0  0  0  0  0  0  0  0
+          0  0  0  0  0  0  0  0  0  0  0  0  0  0  0  0  0
++         0  0  0  0  0  0  0  0  0  0  0  0  0  0  0  0  0
++         0  0  0  0  0  0  0  0  0  0  0  0  0  0  0  0  0
++         0  0  0  0  0  0  0  0  0  0  0  0  0  0  0  0  0
++         0  0  0  0  0  0  0  0  0  0  0  0  0  0  0  0  0
++         0  0  0  0  0  0  0  0  0  0  0  0  0  0  0  0  0
%c M  cc GPS ccc cccc cccc cccc cccc ccccc ccccc ccccc ccccc
%c cc cc ccc ccc cccc cccc cccc cccc ccccc ccccc ccccc ccccc
%f  0.0000000  0.000000000  0.00000000000  0.000000000000000
%f  0.0000000  0.000000000  0.00000000000  0.000000000000000
%i    0    0    0    0      0      0      0      0         0
%i    0    0    0    0      0      0      0      0         0
/* IAC                                ULTRA-RAPID PREDICTION
/* S/V CLOCKS ARE ALIGNED TO GNSS TIME                      
/* G:C1WC2W R:C1PC2P E:C1XC5X C:C2IC6I J:C1CC2S             
/* PCV:IGS20_2350 OL/AL:FES2004  NONE     YN ORB:CoN CLK:CoN
*  2025 01 31  4 30  0.00000000
PG01  -6687.890230  17383.323803 -18927.015672     88.910928
PG02  -7683.361134  18657.403213 -16596.405744   -254.754719
PG03   4405.666702  17879.889781 -19348.041278    655.741128
PG04   -364.256071  26390.893172   2113.348220    520.119889
PG05  10285.945429 -11094.932733  21662.871325   -200.587417
PG06  24009.750565  -4508.427219 -10514.022175   -155.620692
PG07  10115.083039  12285.296791  21845.302789    -13.421842
PG08  -6292.469022  23886.822594   8981.745689    471.444206
PG09   7210.833479  23195.871600  10575.268453    549.381104
PG10 -23890.334614  -9783.164355  -6707.894903   -299.125472
PG11  23682.179499 -11927.694322    832.068058   -749.731272
PG12   -608.172289 -17748.549699 -20055.971120   -567.533639
PG13  13191.951454 -17543.412827  14544.797062    695.093372
PG14  23430.374549  12311.920803  -3411.422612    589.948735
PG15   2722.674658 -24941.338352   7978.202447    257.930389
PG16 -16270.761594   5357.936132  20052.769379    -64.657568
PG17  13038.095579  10502.462316 -20163.069767    448.942789
PG18 -11859.226407 -10320.009475  21473.683689   -655.585418
PG19  15296.148469   -196.439198 -21819.704178    592.523202
PG20  20635.790991  -4145.063439  16213.138221    366.663073
PG21 -13504.948755  18730.285208 -11674.925616    101.831499
PG22  22691.572730   7693.632066 -10736.039987    -94.912410
PG23 -19419.176700 -16885.865700   7091.072188    414.374486
PG24   8671.232932 -19783.216252 -15662.276460   -457.876006
PG25 -13774.736110 -19035.241825 -12997.289097    495.856959
PG26 -23184.593561   -792.513481  13087.592410    -70.566194
PG27 -12528.431284  15137.561068  17344.720389    -32.274429
PG28 -23318.482760   3547.487328 -12229.597877   -548.536737
PG29  -4930.427684 -23654.538570  10839.456259   -542.206231
PG30  20174.726538   3536.574993  17207.351805   -227.073792
PG31 -24818.514287   9119.526305  -4327.546256   -216.641708
PG32 -14724.227184  -4747.856246 -21378.389359   -531.305090
PR01 -12028.839580 -20555.895361  -9114.154490    113.082301
PR02 -12410.877178  -6581.564832 -21258.668859    -37.916548
PR03  -6448.897710  12262.275722 -21350.732689    115.965733
PR04   2687.913624  23391.526786  -9757.153610    275.014611
PR05  10349.885517  22210.623939   7058.090120    144.626702
PR06  -1992.424695 -22729.219267  11409.425226   -131.257260
PR07   6323.267639 -12613.719787  21308.975659     99.878913
PR08  -2969.139373 -23487.146496   9613.992839     -6.270601
PR09  25260.447070   3404.004283  -1798.397877    235.213083
PR11   2822.708907 -10600.482013 -23023.634348     -5.045653
PR12 -17397.885016 -10930.494509 -15108.867291     50.231178
PR14 -18173.408971   5010.796243  17177.634418     27.674804
PR15   -847.698389  11116.105156  22953.799774     71.654381
PR16  17336.039152  10830.314545  15283.737875     32.904778
PR17 -18079.358875  17707.582268   3360.520715    162.119530
PR18 -10301.921089  19554.198397 -12667.334255    184.633179
PR19    851.952277  13081.761912 -21877.367152   -307.440043
PR20  16309.753022  -4247.964602 -19153.076347   -125.189578
PR21  18487.470394 -16918.177026  -4696.270629   -172.710102
PR22   9603.193578 -19291.011026  13690.595647    -58.490112
PR24 -16556.907999   5162.978924  18729.788683    -90.425759
*  2025 01 31  4 45  0.00000000
PG01  -8624.812109  18148.391131 -17360.103801     88.934933
PG02  -9335.820192  19565.839887 -14603.641929   -254.746345
PG03   2434.726087  16803.435304 -20619.923421    655.747030
PG04   -615.771633  26457.067544   -763.059723    520.124990
PG05  12469.089220  -9921.267295  21088.293812   -200.588451
PG06  22899.977540  -3734.367430 -12975.753406   -155.643992
PG07   8039.836403  13477.471627  21968.135846    -13.421955
PG08  -6626.443533  22693.277704  11494.136907    471.450663
PG09   7000.992367  24277.081420   7990.324964    549.393929
PG10 -24355.357778 -10231.287755  -3904.039764   -299.139422
PG11  23729.812528 -11676.200153  -2036.510323   -749.729724
PG12   1338.173764 -16535.937112 -21043.310084   -567.535586
PG13  13101.150045 -15712.354340  16569.798754    695.094358
PG14  23483.844076  12676.274557   -616.615974    589.954963
PG15   3207.164885 -23872.809881  10514.162215    257.934324
PG16 -18086.532274   3968.066640  18844.812112    -64.649243
PG17  12780.124534  12814.441146 -18961.209467    448.926428
PG18  -9709.598043 -11535.099551  21910.986448   -655.583768
PG19  15062.181675   2264.977824 -21905.020930    592.527184
PG20  22199.448156  -3379.276780  14175.943956    366.662802
PG21 -14723.082056  19216.070166  -9120.136701    101.831959
PG22  23470.779447   8565.666854  -8156.413177    -94.913977
PG23 -18507.157659 -16573.879919   9757.913398    414.381104
PG24  10135.544971 -20527.096736 -13594.389145   -457.871937
PG25 -12323.714765 -18459.446669 -15143.030816    495.856349
PG26 -24329.709239  -1617.433700  10798.304475    -70.580726
PG27 -12719.805053  12992.964937  18889.323763    -32.273899
PG28 -22125.137330   2575.237158 -14484.113240   -548.544849
PG29  -4626.826429 -24735.750406   8252.944497   -542.203106
PG30  18503.644719   4694.423145  18729.778538   -227.066068
PG31 -24390.038400   8617.936570  -7051.462805   -216.640844
PG32 -14696.773885  -7202.298531 -20726.336337   -531.298389
PR01 -12510.886606 -21374.040468  -6079.098765    113.083492
PR02 -13335.736683  -8952.542998 -19790.793402    -37.916116
PR03  -7333.895172   9698.038542 -22362.580561    115.966432
PR04   2378.218962  22031.514272 -12585.057298    275.016240
PR05  10742.070249  22789.964956   3918.785573    144.627327
PR06  -1578.200021 -21206.944796  14096.172427   -131.256895
PR07   7187.245120 -10072.417077  22359.647827     99.879586
PR08  -2650.564419 -22166.104331  12442.816141     -6.270484
PR09  25300.672306   3313.264358   1379.922811    235.215084
PR11   5611.121098 -10159.529058 -22711.108063     -5.048431
PR12 -15435.013574 -10505.107906 -17370.331489     50.231584
PR14 -20139.845468   4780.874573  14896.800946     27.674853
PR15  -3634.310672  10646.616923  22903.673101     71.653970
PR16  15357.407897  10391.696785  17535.634423     32.905097
PR17 -17546.080188  17362.622575   6514.000093    162.122389
PR18 -11086.313910  20720.427617  -9834.885569    184.634899
PR19   -866.349417  15066.159786 -20560.766260   -307.441249
PR20  14544.833023  -2515.501494 -20804.389419   -125.190365
PR21  17839.005455 -16455.779375  -7812.966957   -172.712972
PR22  10529.142994 -20499.315686  10981.343417    -58.491670
PR24 -14944.978098   3368.312842  20418.735511    -90.427188
EOF
